IRIDIUM 116             
1 43072U 17083C   25147.88346212  .00000028  00000+0  29314-5 0  9991
2 43072  86.3950 123.0963 0002485  82.4401 277.7077 14.34217940388945
IRIDIUM 130             
1 43073U 17083D   25147.85174879  .00000252  00000+0  82858-4 0  9997
2 43073  86.3959 123.3473 0002706  86.3620 273.7886 14.34218841388884
IRIDIUM 151             
1 43074U 17083E   25147.40776879 -.00000003  00000+0 -82449-5 0  9990
2 43074  86.3954 123.3443 0002364  82.1351 278.0113 14.34217390388847
IRIDIUM 134             
1 43075U 17083F   25147.93420019  .00000025  00000+0  17898-5 0  9999
2 43075  86.3952 123.1270 0002652  88.3936 271.7564 14.34216511388887
IRIDIUM 137             
1 43076U 17083G   25147.66781468  .00000003  00000+0 -60813-5 0  9990
2 43076  86.3957 123.3233 0002374  71.1083 289.0370 14.34217335388914
IRIDIUM 141             
1 43077U 17083H   25147.94054449  .00000112  00000+0  33052-4 0  9998
2 43077  86.3950 123.0618 0002155  92.6844 267.4599 14.34217872388955
IRIDIUM 153             
1 43078U 17083J   25147.75318540  .00000169  00000+0  53379-4 0  9999
2 43078  86.3955  91.6100 0002117  97.2612 262.8824 14.34219150390032
IRIDIUM 131             
1 43079U 17083K   25147.85809204  .00000003  00000+0 -58373-5 0  9991
2 43079  86.3958 123.2567 0002013  86.7656 273.3771 14.34217529388876
